STARLINK-1555_new
1 16032C 20055F   21326.13613078 -.00002321  00000-0 -15552-3 0  3265
2 16032  53.0530 328.1296 0001499  60.3861  55.6210 15.06394451    19
STARLINK-1555_old
1 26032C 20055F   21325.17430696 -.00026924  00000-0 -18039-2 0  3257
2 26032  53.0533 332.4476 0001525  61.4484 235.6584 15.06425478    11
